STARLINK-5658           
1 55338U 23013H   26068.07332791 -.00000120  00000+0  61752-5 0  9996
2 55338  43.0037 303.9474 0001502 260.8013  99.2659 15.02534463171610
ION SCV-014             
1 62630U 25009X   26068.71776957  .00001812  00000+0  13229-3 0  9995
2 62630  97.4923 144.8636 0006450 112.6479 247.5430 15.04884649 63025
